CHINASAT 9B             
1 49125U 21080A   26198.78700543 -.00000323  00000+0  00000+0 0  9999
2 49125   0.0520 245.4964 0002708 245.8201 188.9949  1.00279615 17954
SHIJIAN-21 (SJ-21)      
1 49330U 21094A   26198.93482747 -.00000358  00000+0  00000+0 0  9990
2 49330   5.1841  60.9928 0051557 168.9434 170.2983  1.00276843  5660
SES-17                  
1 49332U 21095A   26198.89618302 -.00000281  00000+0  00000+0 0  9991
2 49332   0.0227  48.6297 0000876  66.1881  76.4118  1.00270138 18166
SYRACUSE 4A             
1 49333U 21095B   26198.41941830  .00000000  00000+0  00000+0 0  9993
2 49333   0.0229  68.2620 0001685  39.9155  23.5657  1.00270486 18255
QZS-1R (MICHIBIKI-1R)   
1 49336U 21096A   26198.56919843 -.00000311  00000+0  00000+0 0  9998
2 49336  37.5223  79.1315 0755353 272.2799 280.3110  1.00244494 17316
ZHONGXING-1D            
1 49505U 21114A   26198.93526080 -.00000346  00000+0  00000+0 0  9993
2 49505   0.0269 229.4796 0000641  23.6719 149.4175  1.00267119 17129
STPSAT-6                
1 49817U 21118A   26198.62614112 -.00000054  00000+0  00000+0 0  9999
2 49817   0.3976  85.0940 0000921 246.2950  77.6614  1.00270345 16877
EXPRESS AMU-7           
1 50001U 21123A   26198.86688955 -.00000251  00000+0  00000+0 0  9993
2 50001   0.0406 244.6073 0000508  67.6916  80.4550  1.00272767 16845
EXPRESS AMU-3           
1 50002U 21123B   26197.89551023  .00000000  00000+0  00000+0 0  9992
2 50002   0.0145 344.9181 0000346 324.0235  51.0553  1.00271212  7339
TIANLIAN 2-02           
1 50005U 21124A   26198.87208958 -.00000024  00000+0  00000+0 0  9998
2 50005   0.8793  85.6277 0001629 161.4640 173.4944  1.00271120 16928
TURKSAT 5B              
1 50212U 21126A   26198.06241519  .00000136  00000+0  00000+0 0  9994
2 50212   0.0698 341.4108 0002301  12.6933   5.2373  1.00270971 16594
INMARSAT 6-F1           
1 50319U 21128A   26198.98799797  .00000000  00000+0  00000+0 0  9991
2 50319   0.0170  52.3223 0000153  46.2494 276.6649  1.00269331 16566
SHIYAN-12 01 (SY-12 01) 
1 50321U 21129A   26198.77302700  .00000137  00000+0  00000+0 0  9997
2 50321   3.7517  79.4981 0002605 288.1588 241.4506  1.00052688 16804
SHIYAN-12 02 (SY-12 02) 
1 50322U 21129B   26198.77540042 -.00000372  00000+0  00000+0 0  9993
2 50322   3.7507  79.4976 0003144  68.7419 178.7607  1.00476084 16806
TJS-9                   
1 50574U 21135A   26198.93664747 -.00000307  00000+0  00000+0 0  9994
2 50574   0.0530 100.3138 0002130 331.1641 338.7088  1.00271352 16737
GOES 18                 
1 51850U 22021A   26198.59726072  .00000087  00000+0  00000+0 0  9993
2 51850   0.0143 128.8784 0000438  42.9250 201.6142  1.00271942  6899
ZHONGXING-6D            
1 52255U 22038A   26197.83400887 -.00000364  00000+0  00000+0 0  9999
2 52255   0.0170 218.2431 0000739 323.3346 178.4012  1.00271153 15721
NILESAT 301             
1 52817U 22061A   26198.83678420 -.00000067  00000+0  00000+0 0  9990
2 52817   0.0458   7.1438 0003569  74.7161 148.0300  1.00269977 15041
CMS-02 (GSAT-24)        
1 52903U 22067A   26198.98784926 -.00000173  00000+0  00000+0 0  9995
2 52903   0.0589 251.9126 0001007 112.2148  10.2727  1.00272862 14918
MEASAT 3D               
1 52904U 22067B   26198.92763409 -.00000250  00000+0  00000+0 0  9999
2 52904   0.0386 321.6005 0000530  66.4630 333.1237  1.00270764 14957
SES-22                  
1 52933U 22071A   26198.73915380  .00000095  00000+0  00000+0 0  9998
2 52933   0.0198  40.5070 0000905  67.7890 314.3298  1.00272794  7828
WFOV (USA 332)          
1 52940U 22073A   26198.93309412 -.00000373  00000+0  00000+0 0  9993
2 52940   3.7879  78.1374 0001019 187.9415 124.8333  1.00276183 14672
TIANLIAN 2-03           
1 53100U 22078A   26198.36502958  .00000062  00000+0  00000+0 0  9998
2 53100   0.7452  77.5281 0000832  15.2018 344.5007  1.00271316 14840
SBIRS GEO-6 (USA 336)   
1 53355U 22092A   26198.93699413 -.00000299  00000+0  00000+0 0  9995
2 53355   3.2066 318.0048 0001758 154.3010 299.7546  1.00270974 14545
EUTELSAT KONNECT VHTS   
1 53765U 22110A   26198.76747838  .00000009  00000+0  00000+0 0  9995
2 53765   0.0575  99.5681 0002664 354.4324 120.5632  1.00275838  7141
ZHONGXING-1E            
1 53813U 22112A   26198.92564074  .00000000  00000+0  00000+0 0  9999
2 53813   0.0174 231.2567 0000699  39.3967  79.7351  1.00270479 14154
SES-20                  
1 53960U 22123A   26198.60393409 -.00000110  00000+0  00000+0 0  9994
2 53960   0.0137  65.5896 0001915  25.7401 318.4014  1.00268981 13831
SES-21                  
1 53961U 22123B   26198.74097381  .00000000  00000+0  00000+0 0  9997
2 53961   0.0389  40.4121 0000897  72.4757 318.5007  1.00268111  7511
GALAXY 33 (G-33)        
1 54026U 22128A   26198.74054047  .00000070  00000+0  00000+0 0  9994
2 54026   0.0160  61.8846 0001841  51.7210 315.5257  1.00269767 14044
GALAXY 34 (G-34)        
1 54027U 22128B   26198.70998764  .00000050  00000+0  00000+0 0  9992
2 54027   0.0094  64.4505 0001511  52.4540 305.2046  1.00271292 14217
ANGOSAT 2               
1 54033U 22131A   26198.84276422  .00000126  00000+0  00000+0 0  9992
2 54033   0.0184 121.8347 0000104 287.8592 212.3430  1.00272706 13781
EUTELSAT HOTBIRD 13F    
1 54048U 22134A   26198.82897784  .00000078  00000+0  00000+0 0  9995
2 54048   0.0547 285.0819 0001956  74.9606 247.0357  1.00271077 13686
