OBJECT_NAME,OBJECT_ID,EPOCH,MEAN_MOTION,ECCENTRICITY,INCLINATION,RA_OF_ASC_NODE,ARG_OF_PERICENTER,MEAN_ANOMALY,EPHEMERIS_TYPE,CLASSIFICATION_TYPE,NORAD_CAT_ID,ELEMENT_SET_NO,REV_AT_EPOCH,BSTAR,MEAN_MOTION_DOT,MEAN_MOTION_DDOT
CHINASAT 9B,2021-080A,2026-07-17T18:53:17.269152,1.00279615,.00027088,0.0520,245.4964,245.8201,188.9949,0,U,49125,999,1795,0,-.323E-5,0
SHIJIAN-21 (SJ-21),2021-094A,2026-07-17T22:26:09.093408,1.00276843,.0051557,5.1841,60.9928,168.9434,170.2983,0,U,49330,999,566,0,-.358E-5,0
SES-17,2021-095A,2026-07-17T21:30:30.212928,1.00270138,.0000876,0.0227,48.6297,66.1881,76.4118,0,U,49332,999,1816,0,-.281E-5,0
SYRACUSE 4A,2021-095B,2026-07-17T10:03:57.741120,1.00270486,.0001685,0.0229,68.2620,39.9155,23.5657,0,U,49333,999,1825,0,0,0
QZS-1R (MICHIBIKI-1R),2021-096A,2026-07-17T13:39:38.744352,1.00244494,.0755353,37.5223,79.1315,272.2799,280.3110,0,U,49336,999,1731,0,-.311E-5,0
ZHONGXING-1D,2021-114A,2026-07-17T22:26:46.533120,1.00267119,.00006413,0.0269,229.4796,23.6719,149.4175,0,U,49505,999,1712,0,-.346E-5,0
STPSAT-6,2021-118A,2026-07-17T15:01:38.592768,1.00270345,.00009212,0.3976,85.0940,246.2950,77.6614,0,U,49817,999,1687,0,-.54E-6,0
EXPRESS AMU-7,2021-123A,2026-07-17T20:48:19.257120,1.00272767,.0000508,0.0406,244.6073,67.6916,80.4550,0,U,50001,999,1684,0,-.251E-5,0
EXPRESS AMU-3,2021-123B,2026-07-16T21:29:32.083872,1.00271212,.00003461,0.0145,344.9181,324.0235,51.0553,0,U,50002,999,733,0,0,0
TIANLIAN 2-02,2021-124A,2026-07-17T20:55:48.539712,1.00271120,.00016294,0.8793,85.6277,161.4640,173.4944,0,U,50005,999,1692,0,-.24E-6,0
TURKSAT 5B,2021-126A,2026-07-17T01:29:52.672416,1.00270971,.00023014,0.0698,341.4108,12.6933,5.2373,0,U,50212,999,1659,0,.136E-5,0
INMARSAT 6-F1,2021-128A,2026-07-17T23:42:43.024608,1.00269331,.00001535,0.0170,52.3223,46.2494,276.6649,0,U,50319,999,1656,0,0,0
SHIYAN-12 01 (SY-12 01),2021-129A,2026-07-17T18:33:09.532800,1.00052688,.0002605,3.7517,79.4981,288.1588,241.4506,0,U,50321,999,1680,0,.137E-5,0
SHIYAN-12 02 (SY-12 02),2021-129B,2026-07-17T18:36:34.596288,1.00476084,.0003144,3.7507,79.4976,68.7419,178.7607,0,U,50322,999,1680,0,-.372E-5,0
TJS-9,2021-135A,2026-07-17T22:28:46.341408,1.00271352,.000213,0.0530,100.3138,331.1641,338.7088,0,U,50574,999,1673,0,-.307E-5,0
GOES 18,2022-021A,2026-07-17T14:20:03.326208,1.00271942,.00004387,0.0143,128.8784,42.9250,201.6142,0,U,51850,999,689,0,.87E-6,0
ZHONGXING-6D,2022-038A,2026-07-16T20:00:58.366368,1.00271153,.0000739,0.0170,218.2431,323.3346,178.4012,0,U,52255,999,1572,0,-.364E-5,0
NILESAT 301,2022-061A,2026-07-17T20:04:58.154880,1.00269977,.00035691,0.0458,7.1438,74.7161,148.0300,0,U,52817,999,1504,0,-.67E-6,0
CMS-02 (GSAT-24),2022-067A,2026-07-17T23:42:30.176064,1.00272862,.00010073,0.0589,251.9126,112.2148,10.2727,0,U,52903,999,1491,0,-.173E-5,0
MEASAT 3D,2022-067B,2026-07-17T22:15:47.585376,1.00270764,.00005309,0.0386,321.6005,66.4630,333.1237,0,U,52904,999,1495,0,-.25E-5,0
SES-22,2022-071A,2026-07-17T17:44:22.888320,1.00272794,.00009055,0.0198,40.5070,67.7890,314.3298,0,U,52933,999,782,0,.95E-6,0
WFOV (USA 332),2022-073A,2026-07-17T22:23:39.331968,1.00276183,.00010197,3.7879,78.1374,187.9415,124.8333,0,U,52940,999,1467,0,-.373E-5,0
TIANLIAN 2-03,2022-078A,2026-07-17T08:45:38.555712,1.00271316,.0000832,0.7452,77.5281,15.2018,344.5007,0,U,53100,999,1484,0,.62E-6,0
SBIRS GEO-6 (USA 336),2022-092A,2026-07-17T22:29:16.292832,1.00270974,.00017587,3.2066,318.0048,154.3010,299.7546,0,U,53355,999,1454,0,-.299E-5,0
EUTELSAT KONNECT VHTS,2022-110A,2026-07-17T18:25:10.132032,1.00275838,.00026645,0.0575,99.5681,354.4324,120.5632,0,U,53765,999,714,0,.9E-7,0
ZHONGXING-1E,2022-112A,2026-07-17T22:12:55.359936,1.00270479,.00006992,0.0174,231.2567,39.3967,79.7351,0,U,53813,999,1415,0,0,0
SES-20,2022-123A,2026-07-17T14:29:39.905376,1.00268981,.00019151,0.0137,65.5896,25.7401,318.4014,0,U,53960,999,1383,0,-.11E-5,0
SES-21,2022-123B,2026-07-17T17:47:00.137184,1.00268111,.00008973,0.0389,40.4121,72.4757,318.5007,0,U,53961,999,751,0,0,0
GALAXY 33 (G-33),2022-128A,2026-07-17T17:46:22.696608,1.00269767,.00018412,0.0160,61.8846,51.7210,315.5257,0,U,54026,999,1404,0,.7E-6,0
GALAXY 34 (G-34),2022-128B,2026-07-17T17:02:22.932096,1.00271292,.00015114,0.0094,64.4505,52.4540,305.2046,0,U,54027,999,1421,0,.5E-6,0
ANGOSAT 2,2022-131A,2026-07-17T20:13:34.828608,1.00272706,.00001042,0.0184,121.8347,287.8592,212.3430,0,U,54033,999,1378,0,.126E-5,0
EUTELSAT HOTBIRD 13F,2022-134A,2026-07-17T19:53:43.685376,1.00271077,.00019565,0.0547,285.0819,74.9606,247.0357,0,U,54048,999,1368,0,.78E-6,0
